NORAD_CAT_ID,OBJECT_NAME,OBJECT_TYPE,EPOCH,MEAN_MOTION,ECCENTRICITY,INCLINATION,RA_OF_ASC_NODE,ARG_OF_PERICENTER,MEAN_ANOMALY,BSTAR,MEAN_MOTION_DOT,MEAN_MOTION_DDOT,TLE_LINE0,TLE_LINE1,TLE_LINE2,SEMIMAJOR_AXIS,PERIOD,APOGEE,PERIGEE,DECAYED
53926.0,STARLINK-5014,PAYLOAD,2022-11-07 14:00:01,15.73180349,0.0002912,53.2173,37.1129,16.6455,48.3466,0.0005375,0.00075441,0.0,0 STARLINK-5014,1 53926U 22119AS  22311.58334491  .00075441  00000-0  53750-3 0  9990,2 53926  53.2173  37.1129 0002912  16.6455  48.3466 15.73180349  7304,6727.951,91.534,351.775,347.857,0.0
53926.0,STARLINK-5014,PAYLOAD,2022-11-07 22:00:00,15.73283945,0.0002852,53.217,35.4623,15.4898,138.4289,-0.00062343,-0.00087547,0.0,0 STARLINK-5014,1 53926U 22119AS  22311.91667824 -.00087547  00000-0 -62343-3 0  9996,2 53926  53.2170  35.4623 0002852  15.4898 138.4289 15.73283945  1306,6727.656,91.528,351.44,347.602,0.0
53926.0,STARLINK-5014,PAYLOAD,2022-11-08 12:00:00,15.73258365,0.0003046,53.2169,32.5766,17.415,202.3353,0.00054788,0.00077186,0.0,0 STARLINK-5014,1 53926U 22119AS  22312.50001157  .00077186  00000-0  54788-3 0  9993,2 53926  53.2169  32.5766 0003046  17.4150 202.3353 15.73258365  7441,6727.729,91.53,351.64300000000014,347.545,0.0
53926.0,STARLINK-5014,PAYLOAD,2022-11-08 14:00:01,15.73271835,0.0003094,53.2171,32.1645,16.8516,315.15,0.00054536,0.0007687,0.0,0 STARLINK-5014,1 53926U 22119AS  22312.58334491  .00076870  00000-0  54536-3 0  9991,2 53926  53.2171  32.1645 0003094  16.8516 315.1500 15.73271835  1301,6727.69,91.529,351.63699999999994,347.474,0.0
53926.0,STARLINK-5014,PAYLOAD,2022-11-08 22:00:00,15.73261015,0.000299,53.217,30.5019,15.3542,45.654,-0.0028444,-0.00383335,0.0,0 STARLINK-5014,1 53926U 22119AS  22312.91667824 -.00383335  00000-0 -28444-2 0  9994,2 53926  53.2170  30.5019 0002990  15.3542  45.6540 15.73261015  7511,6727.721,91.53,351.598,347.575,0.0
53926.0,STARLINK-5014,PAYLOAD,2022-11-09 06:00:00,15.73182682,0.0002946,53.2175,28.8635,20.7125,129.1399,-9.3303e-05,-0.00013689,0.0,0 STARLINK-5014,1 53926U 22119AS  22313.25001157 -.00013689  00000-0 -93303-4 0  9993,2 53926  53.2175  28.8635 0002946  20.7125 129.1399 15.73182682  7565,6727.945,91.534,351.792,347.827,0.0
53926.0,STARLINK-5014,PAYLOAD,2022-11-09 14:00:01,15.73131783,0.0003243,53.2174,27.2162,16.4763,222.2738,0.00059298,0.00083199,0.0,0 STARLINK-5014,1 53926U 22119AS  22313.58334491  .00083199  00000-0  59298-3 0  9994,2 53926  53.2174  27.2162 0003243  16.4763 222.2738 15.73131783  1307,6728.09,91.537,352.13699999999994,347.773,0.0
53926.0,STARLINK-5014,PAYLOAD,2022-11-09 22:00:01,15.73170534,0.0003044,53.2171,25.5653,13.8818,313.813,-0.00019717,-0.00028174,0.0,0 STARLINK-5014,1 53926U 22119AS  22313.91668981 -.00028174  00000-0 -19717-3 0  9991,2 53926  53.2171  25.5653 0003044  13.8818 313.8130 15.73170534  1301,6727.979,91.535,351.892,347.796,0.0
53926.0,STARLINK-5014,PAYLOAD,2022-11-10 14:00:01,15.73027681,0.0003256,53.2169,22.2683,6.5949,138.8185,0.0013275,0.00188555,0.0,0 STARLINK-5014,1 53926U 22119AS  22314.58334491  .00188555  00000-0  13275-2 0  9991,2 53926  53.2169  22.2683 0003256   6.5949 138.8185 15.73027681  1303,6728.387,91.543,352.44199999999995,348.061,0.0
53926.0,STARLINK-5014,PAYLOAD,2022-11-10 20:00:01,15.73164416,0.0003238,53.2167,21.0303,8.701,113.2828,0.00048955,0.00068555,0.0,0 STARLINK-5014,1 53926U 22119AS  22314.83334491  .00068555  00000-0  48955-3 0  9990,2 53926  53.2167  21.0303 0003238   8.7010 113.2828 15.73164416  7811,6727.996999999999,91.535,352.04,347.68300000000005,0.0
53926.0,STARLINK-5014,PAYLOAD,2022-11-10 22:00:00,15.73191459,0.0003174,53.2169,20.6174,9.274,224.9268,0.00031089,0.00043227,0.0,0 STARLINK-5014,1 53926U 22119AS  22314.91667824  .00043227  00000-0  31089-3 0  9997,2 53926  53.2169  20.6174 0003174   9.2740 224.9268 15.73191459  1302,6727.92,91.534,351.92,347.649,0.0
53926.0,STARLINK-5014,PAYLOAD,2022-11-11 14:00:01,15.73195217,0.0003453,53.217,17.3198,8.9795,43.1393,0.00073745,0.00104168,0.0,0 STARLINK-5014,1 53926U 22119AS  22315.58334491  .00104168  00000-0  73745-3 0  9999,2 53926  53.2170  17.3198 0003453   8.9795  43.1393 15.73195217  7930,6727.909000000002,91.533,352.097,347.451,0.0
53926.0,STARLINK-5014,PAYLOAD,2022-11-11 22:00:00,15.7328554,0.0003318,53.2168,15.6685,7.7042,133.3863,-0.00027684,-0.00039449,0.0,0 STARLINK-5014,1 53926U 22119AS  22315.91667824 -.00039449  00000-0 -27684-3 0  9997,2 53926  53.2168  15.6685 0003318   7.7042 133.3863 15.73285540  1309,6727.651,91.528,351.749,347.284,0.0
53926.0,STARLINK-5014,PAYLOAD,2022-11-12 06:00:00,15.73294824,0.0003293,53.2166,14.019,10.3733,219.7215,-0.00042654,-0.0006032,0.0,0 STARLINK-5014,1 53926U 22119AS  22316.25001157 -.00060320  00000-0 -42654-3 0  9992,2 53926  53.2166  14.0190 0003293  10.3733 219.7215 15.73294824  8032,6727.625,91.528,351.705,347.274,0.0
53926.0,STARLINK-5014,PAYLOAD,2022-11-12 14:00:01,15.73242343,0.0003604,53.2164,12.3711,10.5117,308.5974,0.00032068,0.00044717,0.0,0 STARLINK-5014,1 53926U 22119AS  22316.58334491  .00044717  00000-0  32068-3 0  9996,2 53926  53.2164  12.3711 0003604  10.5117 308.5974 15.73242343  1305,6727.774,91.531,352.064,347.215,0.0
53926.0,STARLINK-5014,PAYLOAD,2022-11-12 22:00:00,15.73259742,0.0003375,53.2166,10.7194,7.8788,40.2381,-0.00049844,-0.00070198,0.0,0 STARLINK-5014,1 53926U 22119AS  22316.91667824 -.00070198  00000-0 -49844-3 0  9996,2 53926  53.2166  10.7194 0003375   7.8788  40.2381 15.73259742  8144,6727.725,91.53,351.86,347.319,0.0
53926.0,STARLINK-5014,PAYLOAD,2022-11-13 14:00:01,15.73104237,0.0003765,53.2167,7.4221,7.9598,218.0445,0.00076743,0.00108062,0.0,0 STARLINK-5014,1 53926U 22119AS  22317.58334491  .00108062  00000-0  76743-3 0  9999,2 53926  53.2167   7.4221 0003765   7.9598 218.0445 15.73104237  1307,6728.168000000002,91.539,352.566,347.5,0.0
53926.0,STARLINK-5014,PAYLOAD,2022-11-13 22:00:00,15.73186357,0.0003558,53.2165,5.7707,7.4212,307.4442,9.5073e-05,0.00012736,0.0,0 STARLINK-5014,1 53926U 22119AS  22317.91667824  .00012736  00000-0  95073-4 0  9995,2 53926  53.2165   5.7707 0003558   7.4212 307.4442 15.73186357  1306,6727.934,91.534,352.1930000000001,347.405,0.0
53926.0,STARLINK-5014,PAYLOAD,2022-11-14 14:00:01,15.73178577,0.0003839,53.2161,2.4735,6.5662,126.1461,0.00084972,0.00120275,0.0,0 STARLINK-5014,1 53926U 22119AS  22318.58334491  .00120275  00000-0  84972-3 0  9993,2 53926  53.2161   2.4735 0003839   6.5662 126.1461 15.73178577  1300,6727.956,91.534,352.404,347.23800000000006,0.0
53926.0,STARLINK-5014,PAYLOAD,2022-11-14 22:00:00,15.73370005,0.0003562,53.2166,0.8108,5.8779,215.7772,-0.0026496,-0.00359854,0.0,0 STARLINK-5014,1 53926U 22119AS  22318.91667824 -.00359854  00000-0 -26496-2 0  9994,2 53926  53.2166   0.8108 0003562   5.8779 215.7772 15.73370005  1305,6727.411,91.523,351.672,346.879,0.0
53926.0,STARLINK-5014,PAYLOAD,2022-11-15 06:00:00,15.73224698,0.0003728,53.2167,359.1725,9.5948,300.9943,-0.0004392,-0.00061903,0.0,0 STARLINK-5014,1 53926U 22119AS  22319.25001157 -.00061903  00000-0 -43920-3 0  9990,2 53926  53.2167 359.1725 0003728   9.5948 300.9943 15.73224698  8506,6727.825,91.532,352.1980000000001,347.182,0.0
53926.0,STARLINK-5014,PAYLOAD,2022-11-15 14:00:01,15.73175004,0.0004052,53.2163,357.525,10.691,28.8426,0.00062694,0.0008823,0.0,0 STARLINK-5014,1 53926U 22119AS  22319.58334491  .00088230  00000-0  62694-3 0  9995,2 53926  53.2163 357.5250 0004052  10.6910  28.8426 15.73175004  8564,6727.965999999999,91.535,352.55800000000005,347.105,0.0
53926.0,STARLINK-5014,PAYLOAD,2022-11-15 22:00:00,15.73208599,0.0003764,53.2163,355.8735,8.7472,119.7329,-3.8332e-05,-6.004e-05,0.0,0 STARLINK-5014,1 53926U 22119AS  22319.91667824 -.00006004  00000-0 -38332-4 0  9995,2 53926  53.2163 355.8735 0003764   8.7472 119.7329 15.73208599  8617,6727.871,91.533,352.26800000000014,347.20300000000015,0.0
53926.0,STARLINK-5014,PAYLOAD,2022-11-16 14:00:01,15.73225661,0.0003982,53.2163,352.5655,6.5908,299.807,-0.00061873,-0.0008671,0.0,0 STARLINK-5014,1 53926U 22119AS  22320.58335648 -.00086710  00000-0 -61873-3 0  9993,2 53926  53.2163 352.5655 0003982   6.5908 299.8070 15.73225661  1305,6727.821999999999,91.532,352.366,347.0080000000001,0.0
53926.0,STARLINK-5014,PAYLOAD,2022-11-16 20:00:01,15.7312163,0.0003787,53.2171,351.3203,8.9804,274.0721,0.00071111,0.00100065,0.0,0 STARLINK-5014,1 53926U 22119AS  22320.83334491  .00100065  00000-0  71111-3 0  9990,2 53926  53.2171 351.3203 0003787   8.9804 274.0721 15.73121630  8759,6728.119000000002,91.538,352.532,347.436,0.0
53926.0,STARLINK-5014,PAYLOAD,2022-11-16 22:00:08,15.731184900000002,0.0003691,53.2171,350.9049,9.0311,26.7017,0.00093618,0.00132424,0.0,0 STARLINK-5014,1 53926U 22119AS  22320.91675926  .00132424  00000-0  93618-3 0  9990,2 53926  53.2171 350.9049 0003691   9.0311  26.7017 15.73118490  1305,6728.128000000002,91.538,352.476,347.509,0.0
53926.0,STARLINK-5014,PAYLOAD,2022-11-17 12:00:00,15.73012627,0.0004003,53.217,348.0227,7.9278,93.069,0.0016831,0.00240596,0.0,0 STARLINK-5014,1 53926U 22119AS  22321.50001157  .00240596  00000-0  16831-2 0  9996,2 53926  53.2170 348.0227 0004003   7.9278  93.0690 15.73012627  8864,6728.429,91.544,352.98800000000006,347.601,0.0
53926.0,STARLINK-5014,PAYLOAD,2022-11-17 14:00:01,15.7301913,0.0004067,53.2167,347.608,7.7153,205.4798,0.0020082,0.00288939,0.0,0 STARLINK-5014,1 53926U 22119AS  22321.58334491  .00288939  00000-0  20082-2 0  9990,2 53926  53.2167 347.6080 0004067   7.7153 205.4798 15.73019130  1308,6728.411,91.544,353.01199999999994,347.539,0.0
53926.0,STARLINK-5014,PAYLOAD,2022-11-17 22:00:00,15.73217359,0.0003963,53.216,345.9766,7.1327,294.9813,0.00011059,0.00014941,0.0,0 STARLINK-5014,1 53926U 22119AS  22321.91667824  .00014941  00000-0  11059-3 0  9991,2 53926  53.2160 345.9766 0003963   7.1327 294.9813 15.73217359  1308,6727.846,91.532,352.37699999999984,347.0440000000001,0.0
